HULIANWANG DIGUI-156    
1 68130U 26047B   26197.31525015 -.00000094  00000+0  65513-4 0  9991
2 68130  50.0048 311.8447 0000857 206.3476 153.7353 13.29326195 16930
HULIANWANG DIGUI-157    
1 68131U 26047C   26196.70547799 -.00000100  00000+0  51148-4 0  9994
2 68131  50.0020 313.9289 0000894 200.1923 159.8914 13.29325456 16869
HULIANWANG DIGUI-158    
1 68132U 26047D   26196.69709413 -.00000089  00000+0  75601-4 0  9992
2 68132  50.0059 313.9333 0000927 201.3693 158.7140 13.29324203 16853
HULIANWANG DIGUI-159    
1 68133U 26047E   26197.29019432 -.00000089  00000+0  75642-4 0  9990
2 68133  50.0031 311.7009 0001039 197.9033 162.1802 13.29326084 16946
HULIANWANG DIGUI-160    
1 68134U 26047F   26197.27340546 -.00000089  00000+0  76262-4 0  9991
2 68134  50.0091 311.6748 0001093 185.9106 174.1753 13.29325868 16936
HULIANWANG DIGUI-161    
1 68135U 26047G   26196.68032442 -.00000090  00000+0  73003-4 0  9991
2 68135  50.0111 313.8959 0000918 197.3682 162.7159 13.29334440 16860
HULIANWANG DIGUI-162    
1 68136U 26047H   26197.26528490 -.00000095  00000+0  61731-4 0  9990
2 68136  50.0080 311.6228 0000905 206.7566 153.3259 13.29324225 16938
HULIANWANG DIGUI-163    
1 68137U 26047J   26197.25672571 -.00000092  00000+0  69226-4 0  9994
2 68137  50.0082 311.5813 0000779 206.4884 153.5948 13.29339093 16946
HULIANWANG DIGUI-164    
1 68656U 26076A   26197.21274503  .00000012  00000+0 -63411-5 0  9994
2 68656  86.4946  34.0745 0002011  78.3240 281.8120 13.24410784 13214
HULIANWANG DIGUI-165    
1 68657U 26076B   26197.20520115 -.00000021  00000+0 -83651-4 0  9995
2 68657  86.4965  34.0939 0002157  84.1563 275.9816 13.24413343 13215
HULIANWANG DIGUI-166    
1 68658U 26076C   26197.27325649 -.00000007  00000+0 -51232-4 0  9992
2 68658  86.4906  34.0017 0002114  84.3256 275.8120 13.24411418 13221
HULIANWANG DIGUI-167    
1 68659U 26076D   26197.26563474 -.00000004  00000+0 -44338-4 0  9998
2 68659  86.4961  34.0581 0002113  84.0493 276.0882 13.24413489 13226
HULIANWANG DIGUI-168    
1 68660U 26076E   26197.25808467 -.00000016  00000+0 -72110-4 0  9995
2 68660  86.4942  34.0337 0002140  84.5815 275.5563 13.24411653 13219
