{"fetched_at":"2026-07-16T17:46:34.847Z","source":"https://celestrak.org/NORAD/elements/gp.php?NAME=HULIANWANG&FORMAT=JSON","constellation":"guowang","records":[{"OBJECT_NAME":"HULIANWANG DIGUI-156","OBJECT_ID":"2026-047B","EPOCH":"2026-07-16T07:33:57.612960","CLASSIFICATION_TYPE":"U","MEAN_MOTION":13.29326195,"ECCENTRICITY":0.00008573,"INCLINATION":50.0048,"RA_OF_ASC_NODE":311.8447,"ARG_OF_PERICENTER":206.3476,"MEAN_ANOMALY":153.7353,"EPHEMERIS_TYPE":0,"NORAD_CAT_ID":68130,"ELEMENT_SET_NO":999,"REV_AT_EPOCH":1693,"BSTAR":0.000065512732,"MEAN_MOTION_DOT":-9.4e-7,"MEAN_MOTION_DDOT":0},{"OBJECT_NAME":"HULIANWANG DIGUI-157","OBJECT_ID":"2026-047C","EPOCH":"2026-07-15T16:55:53.298336","CLASSIFICATION_TYPE":"U","MEAN_MOTION":13.29325456,"ECCENTRICITY":0.00008943,"INCLINATION":50.002,"RA_OF_ASC_NODE":313.9289,"ARG_OF_PERICENTER":200.1923,"MEAN_ANOMALY":159.8914,"EPHEMERIS_TYPE":0,"NORAD_CAT_ID":68131,"ELEMENT_SET_NO":999,"REV_AT_EPOCH":1686,"BSTAR":0.000051148009,"MEAN_MOTION_DOT":-0.000001,"MEAN_MOTION_DDOT":0},{"OBJECT_NAME":"HULIANWANG DIGUI-158","OBJECT_ID":"2026-047D","EPOCH":"2026-07-15T16:43:48.932832","CLASSIFICATION_TYPE":"U","MEAN_MOTION":13.29324203,"ECCENTRICITY":0.00009276,"INCLINATION":50.0059,"RA_OF_ASC_NODE":313.9333,"ARG_OF_PERICENTER":201.3693,"MEAN_ANOMALY":158.714,"EPHEMERIS_TYPE":0,"NORAD_CAT_ID":68132,"ELEMENT_SET_NO":999,"REV_AT_EPOCH":1685,"BSTAR":0.000075601262,"MEAN_MOTION_DOT":-8.9e-7,"MEAN_MOTION_DDOT":0},{"OBJECT_NAME":"HULIANWANG DIGUI-159","OBJECT_ID":"2026-047E","EPOCH":"2026-07-16T06:57:52.789248","CLASSIFICATION_TYPE":"U","MEAN_MOTION":13.29326084,"ECCENTRICITY":0.00010394,"INCLINATION":50.0031,"RA_OF_ASC_NODE":311.7009,"ARG_OF_PERICENTER":197.9033,"MEAN_ANOMALY":162.1802,"EPHEMERIS_TYPE":0,"NORAD_CAT_ID":68133,"ELEMENT_SET_NO":999,"REV_AT_EPOCH":1694,"BSTAR":0.00007564208,"MEAN_MOTION_DOT":-8.9e-7,"MEAN_MOTION_DDOT":0},{"OBJECT_NAME":"HULIANWANG DIGUI-160","OBJECT_ID":"2026-047F","EPOCH":"2026-07-16T06:33:42.231744","CLASSIFICATION_TYPE":"U","MEAN_MOTION":13.29325868,"ECCENTRICITY":0.00010934,"INCLINATION":50.0091,"RA_OF_ASC_NODE":311.6748,"ARG_OF_PERICENTER":185.9106,"MEAN_ANOMALY":174.1753,"EPHEMERIS_TYPE":0,"NORAD_CAT_ID":68134,"ELEMENT_SET_NO":999,"REV_AT_EPOCH":1693,"BSTAR":0.000076262163,"MEAN_MOTION_DOT":-8.9e-7,"MEAN_MOTION_DDOT":0},{"OBJECT_NAME":"HULIANWANG DIGUI-161","OBJECT_ID":"2026-047G","EPOCH":"2026-07-15T16:19:40.029888","CLASSIFICATION_TYPE":"U","MEAN_MOTION":13.2933444,"ECCENTRICITY":0.00009186,"INCLINATION":50.0111,"RA_OF_ASC_NODE":313.8959,"ARG_OF_PERICENTER":197.3682,"MEAN_ANOMALY":162.7159,"EPHEMERIS_TYPE":0,"NORAD_CAT_ID":68135,"ELEMENT_SET_NO":999,"REV_AT_EPOCH":1686,"BSTAR":0.000073003321,"MEAN_MOTION_DOT":-9e-7,"MEAN_MOTION_DDOT":0},{"OBJECT_NAME":"HULIANWANG DIGUI-162","OBJECT_ID":"2026-047H","EPOCH":"2026-07-16T06:22:00.615360","CLASSIFICATION_TYPE":"U","MEAN_MOTION":13.29324225,"ECCENTRICITY":0.00009058,"INCLINATION":50.008,"RA_OF_ASC_NODE":311.6228,"ARG_OF_PERICENTER":206.7566,"MEAN_ANOMALY":153.3259,"EPHEMERIS_TYPE":0,"NORAD_CAT_ID":68136,"ELEMENT_SET_NO":999,"REV_AT_EPOCH":1693,"BSTAR":0.000061731461,"MEAN_MOTION_DOT":-9.5e-7,"MEAN_MOTION_DDOT":0},{"OBJECT_NAME":"HULIANWANG DIGUI-163","OBJECT_ID":"2026-047J","EPOCH":"2026-07-16T06:09:41.101344","CLASSIFICATION_TYPE":"U","MEAN_MOTION":13.29339093,"ECCENTRICITY":0.00007793,"INCLINATION":50.0082,"RA_OF_ASC_NODE":311.5813,"ARG_OF_PERICENTER":206.4884,"MEAN_ANOMALY":153.5948,"EPHEMERIS_TYPE":0,"NORAD_CAT_ID":68137,"ELEMENT_SET_NO":999,"REV_AT_EPOCH":1694,"BSTAR":0.000069226253,"MEAN_MOTION_DOT":-9.2e-7,"MEAN_MOTION_DDOT":0},{"OBJECT_NAME":"HULIANWANG DIGUI-164","OBJECT_ID":"2026-076A","EPOCH":"2026-07-16T05:06:21.170592","CLASSIFICATION_TYPE":"U","MEAN_MOTION":13.24410784,"ECCENTRICITY":0.0002011,"INCLINATION":86.4946,"RA_OF_ASC_NODE":34.0745,"ARG_OF_PERICENTER":78.324,"MEAN_ANOMALY":281.812,"EPHEMERIS_TYPE":0,"NORAD_CAT_ID":68656,"ELEMENT_SET_NO":999,"REV_AT_EPOCH":1321,"BSTAR":-0.000006341109,"MEAN_MOTION_DOT":1.2e-7,"MEAN_MOTION_DDOT":0},{"OBJECT_NAME":"HULIANWANG DIGUI-165","OBJECT_ID":"2026-076B","EPOCH":"2026-07-16T04:55:29.379360","CLASSIFICATION_TYPE":"U","MEAN_MOTION":13.24413343,"ECCENTRICITY":0.00021574,"INCLINATION":86.4965,"RA_OF_ASC_NODE":34.0939,"ARG_OF_PERICENTER":84.1563,"MEAN_ANOMALY":275.9816,"EPHEMERIS_TYPE":0,"NORAD_CAT_ID":68657,"ELEMENT_SET_NO":999,"REV_AT_EPOCH":1321,"BSTAR":-0.000083650968,"MEAN_MOTION_DOT":-2.1e-7,"MEAN_MOTION_DDOT":0},{"OBJECT_NAME":"HULIANWANG DIGUI-166","OBJECT_ID":"2026-076C","EPOCH":"2026-07-16T06:33:29.360736","CLASSIFICATION_TYPE":"U","MEAN_MOTION":13.24411418,"ECCENTRICITY":0.00021146,"INCLINATION":86.4906,"RA_OF_ASC_NODE":34.0017,"ARG_OF_PERICENTER":84.3256,"MEAN_ANOMALY":275.812,"EPHEMERIS_TYPE":0,"NORAD_CAT_ID":68658,"ELEMENT_SET_NO":999,"REV_AT_EPOCH":1322,"BSTAR":-0.000051232288,"MEAN_MOTION_DOT":-7e-8,"MEAN_MOTION_DDOT":0},{"OBJECT_NAME":"HULIANWANG DIGUI-167","OBJECT_ID":"2026-076D","EPOCH":"2026-07-16T06:22:30.841536","CLASSIFICATION_TYPE":"U","MEAN_MOTION":13.24413489,"ECCENTRICITY":0.00021132,"INCLINATION":86.4961,"RA_OF_ASC_NODE":34.0581,"ARG_OF_PERICENTER":84.0493,"MEAN_ANOMALY":276.0882,"EPHEMERIS_TYPE":0,"NORAD_CAT_ID":68659,"ELEMENT_SET_NO":999,"REV_AT_EPOCH":1322,"BSTAR":-0.000044337599,"MEAN_MOTION_DOT":-4e-8,"MEAN_MOTION_DDOT":0},{"OBJECT_NAME":"HULIANWANG DIGUI-168","OBJECT_ID":"2026-076E","EPOCH":"2026-07-16T06:11:38.515488","CLASSIFICATION_TYPE":"U","MEAN_MOTION":13.24411653,"ECCENTRICITY":0.00021406,"INCLINATION":86.4942,"RA_OF_ASC_NODE":34.0337,"ARG_OF_PERICENTER":84.5815,"MEAN_ANOMALY":275.5563,"EPHEMERIS_TYPE":0,"NORAD_CAT_ID":68660,"ELEMENT_SET_NO":999,"REV_AT_EPOCH":1321,"BSTAR":-0.000072109838,"MEAN_MOTION_DOT":-1.6e-7,"MEAN_MOTION_DDOT":0}]}
